QIANFAN-65              
1 62795U 25016L   25310.73526060  .00000050  00000+0  58937-4 0  9993
2 62795  88.9733 106.7816 0015604  88.3728 271.9211 13.50974611 42387
QIANFAN-66              
1 62796U 25016M   25310.69003281  .00000046  00000+0  52629-4 0  9991
2 62796  88.9753 106.7493 0016697  84.4560 275.8494 13.50978580 42425
QIANFAN-67              
1 62797U 25016N   25310.69414971  .00000057  00000+0  69330-4 0  9993
2 62797  88.9743 106.7780 0016701  90.6514 269.6551 13.50971442 42399
QIANFAN-68              
1 62798U 25016P   25310.75997248  .00000051  00000+0  59593-4 0  9998
2 62798  88.9747 106.8150 0016737  88.8827 271.4242 13.50973743 42384
QIANFAN-69              
1 62799U 25016Q   25310.70244495  .00000049  00000+0  56500-4 0  9995
2 62799  88.9725 106.6982 0017503  89.9525 270.3632 13.50971087 42415
QIANFAN-70              
1 62800U 25016R   25310.71871641  .00000068  00000+0  86857-4 0  9997
2 62800  88.9746 106.8274 0017049  81.2188 279.0893 13.50974120 42373
QIANFAN-71              
1 62801U 25016S   25310.71468856  .00000041  00000+0  44658-4 0  9992
2 62801  88.9740 106.8095 0017431  93.0979 267.2167 13.50974793 42372
QIANFAN-72              
1 62802U 25016T   25310.73116207  .00000051  00000+0  59270-4 0  9992
2 62802  88.9730 106.8247 0020692  99.6309 260.7181 13.50974622 42367
